[Satellite]
VERSION=1.1
NAME=YAOGAN 13
NICKNAME=YAOGAN 13
TLE1=1 37941U 11072A   17186.25613601  .00000791  00000-0  41860-4 0  9992
TLE2=2 37941  97.4851 114.0397 0001078 108.8227  46.1120 15.18319298310408
